{
  "links" : {
    "next" : "https://api.nasa.gov/neo/rest/v1/feed?start_date=2001-10-16&end_date=2001-10-16&detailed=true&api_key=t0TVs3DtDT2H8Oy2Zy8m2eVrNsAVKAexjcZXUckd",
    "prev" : "https://api.nasa.gov/neo/rest/v1/feed?start_date=2001-10-14&end_date=2001-10-14&detailed=true&api_key=t0TVs3DtDT2H8Oy2Zy8m2eVrNsAVKAexjcZXUckd",
    "self" : "https://api.nasa.gov/neo/rest/v1/feed?start_date=2001-10-15&end_date=2001-10-15&detailed=true&api_key=t0TVs3DtDT2H8Oy2Zy8m2eVrNsAVKAexjcZXUckd"
  },
  "element_count" : 7,
  "near_earth_objects" : {
    "2001-10-15" : [ {
      "links" : {
        "self" : "https://api.nasa.gov/neo/rest/v1/neo/3727664?api_key=t0TVs3DtDT2H8Oy2Zy8m2eVrNsAVKAexjcZXUckd"
      },
      "neo_reference_id" : "3727664",
      "name" : "(2015 SB)",
      "nasa_jpl_url" : "http://ssd.jpl.nasa.gov/sbdb.cgi?sstr=3727664",
      "absolute_magnitude_h" : 26.6,
      "estimated_diameter" : {
        "kilometers" : {
          "estimated_diameter_min" : 0.0127219879,
          "estimated_diameter_max" : 0.0284472297
        },
        "meters" : {
          "estimated_diameter_min" : 12.7219878539,
          "estimated_diameter_max" : 28.4472296503
        },
        "miles" : {
          "estimated_diameter_min" : 0.0079050743,
          "estimated_diameter_max" : 0.0176762835
        },
        "feet" : {
          "estimated_diameter_min" : 41.7388066307,
          "estimated_diameter_max" : 93.330808926
        }
      },
      "is_potentially_hazardous_asteroid" : false,
      "close_approach_data" : [ {
        "close_approach_date" : "2001-10-15",
        "epoch_date_close_approach" : 1003129200000,
        "relative_velocity" : {
          "kilometers_per_second" : "14.0369773878",
          "kilometers_per_hour" : "50533.1185959155",
          "miles_per_hour" : "31399.3147186676"
        },
        "miss_distance" : {
          "astronomical" : "0.3942065908",
          "lunar" : "153.3463592529",
          "kilometers" : "58972468",
          "miles" : "36643792"
        },
        "orbiting_body" : "Earth"
      } ],
      "orbital_data" : {
        "orbit_id" : "6",
        "orbit_determination_date" : "2017-04-06 08:31:53",
        "orbit_uncertainty" : "7",
        "minimum_orbit_intersection" : ".0254085",
        "jupiter_tisserand_invariant" : "5.113",
        "epoch_osculation" : "2458000.5",
        "eccentricity" : ".1746715661812409",
        "semi_major_axis" : "1.247332759352797",
        "inclination" : "12.56249550381363",
        "ascending_node_longitude" : "175.642734008768",
        "orbital_period" : "508.8290754644224",
        "perihelion_distance" : "1.029459192727475",
        "perihelion_argument" : "184.8979342849367",
        "aphelion_distance" : "1.465206325978119",
        "perihelion_time" : "2457797.994558966564",
        "mean_anomaly" : "143.273964259014",
        "mean_motion" : ".7075067392157534",
        "equinox" : "J2000"
      }
    }, {
      "links" : {
        "self" : "https://api.nasa.gov/neo/rest/v1/neo/3745113?api_key=t0TVs3DtDT2H8Oy2Zy8m2eVrNsAVKAexjcZXUckd"
      },
      "neo_reference_id" : "3745113",
      "name" : "(2016 EL27)",
      "nasa_jpl_url" : "http://ssd.jpl.nasa.gov/sbdb.cgi?sstr=3745113",
      "absolute_magnitude_h" : 26.1,
      "estimated_diameter" : {
        "kilometers" : {
          "estimated_diameter_min" : 0.0160160338,
          "estimated_diameter_max" : 0.0358129403
        },
        "meters" : {
          "estimated_diameter_min" : 16.0160337979,
          "estimated_diameter_max" : 35.8129403019
        },
        "miles" : {
          "estimated_diameter_min" : 0.0099518989,
          "estimated_diameter_max" : 0.0222531225
        },
        "feet" : {
          "estimated_diameter_min" : 52.5460443254,
          "estimated_diameter_max" : 117.4965270602
        }
      },
      "is_potentially_hazardous_asteroid" : false,
      "close_approach_data" : [ {
        "close_approach_date" : "2001-10-15",
        "epoch_date_close_approach" : 1003129200000,
        "relative_velocity" : {
          "kilometers_per_second" : "10.9191622009",
          "kilometers_per_hour" : "39308.9839234052",
          "miles_per_hour" : "24425.0739272959"
        },
        "miss_distance" : {
          "astronomical" : "0.2649676181",
          "lunar" : "103.0724029541",
          "kilometers" : "39638592",
          "miles" : "24630280"
        },
        "orbiting_body" : "Earth"
      } ],
      "orbital_data" : {
        "orbit_id" : "8",
        "orbit_determination_date" : "2017-04-06 08:27:48",
        "orbit_uncertainty" : "6",
        "minimum_orbit_intersection" : ".029105",
        "jupiter_tisserand_invariant" : "6.697",
        "epoch_osculation" : "2458000.5",
        "eccentricity" : ".2297953176533559",
        "semi_major_axis" : ".8779817977579761",
        "inclination" : "15.57264136140617",
        "ascending_node_longitude" : "166.6009517990764",
        "orbital_period" : "300.4876970300288",
        "perihelion_distance" : ".6762256916483175",
        "perihelion_argument" : "145.581248333875",
        "aphelion_distance" : "1.079737903867635",
        "perihelion_time" : "2457861.597286773575",
        "mean_anomaly" : "166.4127258977795",
        "mean_motion" : "1.198052378044696",
        "equinox" : "J2000"
      }
    }, {
      "links" : {
        "self" : "https://api.nasa.gov/neo/rest/v1/neo/3773837?api_key=t0TVs3DtDT2H8Oy2Zy8m2eVrNsAVKAexjcZXUckd"
      },
      "neo_reference_id" : "3773837",
      "name" : "(2017 GT5)",
      "nasa_jpl_url" : "http://ssd.jpl.nasa.gov/sbdb.cgi?sstr=3773837",
      "absolute_magnitude_h" : 21.308,
      "estimated_diameter" : {
        "kilometers" : {
          "estimated_diameter_min" : 0.1455308201,
          "estimated_diameter_max" : 0.3254168065
        },
        "meters" : {
          "estimated_diameter_min" : 145.5308200677,
          "estimated_diameter_max" : 325.4168064928
        },
        "miles" : {
          "estimated_diameter_min" : 0.0904286312,
          "estimated_diameter_max" : 0.2022045665
        },
        "feet" : {
          "estimated_diameter_min" : 477.463335711,
          "estimated_diameter_max" : 1067.6404754137
        }
      },
      "is_potentially_hazardous_asteroid" : false,
      "close_approach_data" : [ {
        "close_approach_date" : "2001-10-15",
        "epoch_date_close_approach" : 1003129200000,
        "relative_velocity" : {
          "kilometers_per_second" : "14.7880843937",
          "kilometers_per_hour" : "53237.1038173841",
          "miles_per_hour" : "33079.4659803073"
        },
        "miss_distance" : {
          "astronomical" : "0.2371495531",
          "lunar" : "92.2511749268",
          "kilometers" : "35477068",
          "miles" : "22044428"
        },
        "orbiting_body" : "Earth"
      } ],
      "orbital_data" : {
        "orbit_id" : "21",
        "orbit_determination_date" : "2017-06-14 06:17:38",
        "orbit_uncertainty" : "4",
        "minimum_orbit_intersection" : ".133663",
        "jupiter_tisserand_invariant" : "6.189",
        "epoch_osculation" : "2458000.5",
        "eccentricity" : ".2285740525866768",
        "semi_major_axis" : ".9615679735918294",
        "inclination" : "21.70083900781722",
        "ascending_node_longitude" : "205.3372978055089",
        "orbital_period" : "344.4041785802231",
        "perihelion_distance" : ".7417784850303863",
        "perihelion_argument" : "206.7912512304114",
        "aphelion_distance" : "1.181357462153273",
        "perihelion_time" : "2458071.054894815921",
        "mean_anomaly" : "286.2501336701553",
        "mean_motion" : "1.045283484898672",
        "equinox" : "J2000"
      }
    } ]
  }
}